[{"OBJECT_NAME":"STARLINK-30784","OBJECT_ID":"2023-166G","EPOCH":"2026-03-09T16:23:16.247616","MEAN_MOTION":15.30178394,"ECCENTRICITY":8.988e-5,"INCLINATION":53.1607,"RA_OF_ASC_NODE":219.9577,"ARG_OF_PERICENTER":89.6522,"MEAN_ANOMALY":270.4582,"EPHEMERIS_TYPE":0,"CLASSIFICATION_TYPE":"U","NORAD_CAT_ID":58156,"ELEMENT_SET_NO":999,"REV_AT_EPOCH":13302,"BSTAR":-3.7174257e-5,"MEAN_MOTION_DOT":-1.459e-5,"MEAN_MOTION_DDOT":0},{"OBJECT_NAME":"PEGASUS R\/B","OBJECT_ID":"2006-008D","EPOCH":"2026-03-09T19:52:27.636960","MEAN_MOTION":12.3450933,"ECCENTRICITY":0.15655654,"INCLINATION":105.501,"RA_OF_ASC_NODE":149.9277,"ARG_OF_PERICENTER":6.1273,"MEAN_ANOMALY":355.6706,"EPHEMERIS_TYPE":0,"CLASSIFICATION_TYPE":"U","NORAD_CAT_ID":28983,"ELEMENT_SET_NO":999,"REV_AT_EPOCH":81445,"BSTAR":0.00096837459,"MEAN_MOTION_DOT":0.00029646,"MEAN_MOTION_DDOT":3.226784e-6}]
